{"type": "FeatureCollection", "features": [{"type": "Feature", "properties": {"norad_id": 66549, "name": "SHIJIAN-28 (SJ-28)", "group": "last-30-days", "lat": -3.1556851359091804, "lon": 134.1655244037953, "alt_km": 35788.166252468574, "timestamp": "2025-12-24T18:55:54.773789+00:00", "meta": {"OBJECT_NAME": "SHIJIAN-28 (SJ-28)", "OBJECT_ID": "2025-277A", "EPOCH": "2025-12-24T05:05:43.641888", "MEAN_MOTION": 1.00265703, "ECCENTRICITY": 0.00010168, "INCLINATION": 4.9905, "RA_OF_ASC_NODE": 274.7763, "ARG_OF_PERICENTER": 130.9499, "MEAN_ANOMALY": 240.4452, "EPHEMERIS_TYPE": 0, "CLASSIFICATION_TYPE": "U", "NORAD_CAT_ID": 66549, "ELEMENT_SET_NO": 999, "REV_AT_EPOCH": 40, "BSTAR": 0, "MEAN_MOTION_DOT": -3.37e-06, "MEAN_MOTION_DDOT": 0}, "tle": {"line1": "1 66549U 25277A   25358.21231067 -.00000337  00000+0  00000+0 0  9990", "line2": "2 66549   4.9905 274.7763 0001016 130.9499 240.4452  1.00265703   407"}}, "geometry": {"type": "Point", "coordinates": [134.1655244037953, -3.1556851359091804]}}, {"type": "Feature", "properties": {"norad_id": 66550, "name": "CZ-7A R/B", "group": "last-30-days", "lat": 8.35178393158575, "lon": -62.088475086351444, "alt_km": 21442.61223400756, "timestamp": "2025-12-24T18:55:54.773843+00:00", "meta": {"OBJECT_NAME": "CZ-7A R/B", "OBJECT_ID": "2025-277B", "EPOCH": "2025-12-23T05:53:12.433056", "MEAN_MOTION": 3.27661077, "ECCENTRICITY": 0.66094342, "INCLINATION": 14.3426, "RA_OF_ASC_NODE": 263.9223, "ARG_OF_PERICENTER": 200.4471, "MEAN_ANOMALY": 110.5172, "EPHEMERIS_TYPE": 0, "CLASSIFICATION_TYPE": "U", "NORAD_CAT_ID": 66550, "ELEMENT_SET_NO": 999, "REV_AT_EPOCH": 65, "BSTAR": 0.0068493476, "MEAN_MOTION_DOT": 0.10979967, "MEAN_MOTION_DDOT": 1.8894821e-05}, "tle": {"line1": "1 66550U 25277B   25357.24528279  .10979967  18895-4  68493-2 0  9991", "line2": "2 66550  14.3426 263.9223 6609434 200.4471 110.5172  3.27661077   658"}}, "geometry": {"type": "Point", "coordinates": [-62.088475086351444, 8.35178393158575]}}, {"type": "Feature", "properties": {"norad_id": 66554, "name": "GLOBAL-33", "group": "last-30-days", "lat": -13.104038488020615, "lon": -27.55294224075855, "alt_km": 474.7980525461544, "timestamp": "2025-12-24T18:55:54.773872+00:00", "meta": {"OBJECT_NAME": "GLOBAL-33", "OBJECT_ID": "2025-267A", "EPOCH": "2025-12-24T06:29:55.595040", "MEAN_MOTION": 15.31725857, "ECCENTRICITY": 0.00045333, "INCLINATION": 42.0213, "RA_OF_ASC_NODE": 350.4216, "ARG_OF_PERICENTER": 172.4312, "MEAN_ANOMALY": 187.6595, "EPHEMERIS_TYPE": 0, "CLASSIFICATION_TYPE": "U", "NORAD_CAT_ID": 66554, "ELEMENT_SET_NO": 999, "REV_AT_EPOCH": 517, "BSTAR": 0.00048053966, "MEAN_MOTION_DOT": 0.00014821, "MEAN_MOTION_DDOT": 0}, "tle": {"line1": "1 66554U 25267A   25358.27078235  .00014821  00000+0  48054-3 0  9994", "line2": "2 66554  42.0213 350.4216 0004533 172.4312 187.6595 15.31725857  5174"}}, "geometry": {"type": "Point", "coordinates": [-27.55294224075855, -13.104038488020615]}}, {"type": "Feature", "properties": {"norad_id": 66557, "name": "STARLINK-35699", "group": "last-30-days", "lat": 28.44209105099484, "lon": -164.8445396631364, "alt_km": 436.49403508912565, "timestamp": "2025-12-24T18:55:54.773886+00:00", "meta": {"OBJECT_NAME": "STARLINK-35699", "OBJECT_ID": "2025-268A", "EPOCH": "2025-12-24T08:00:03.000384", "MEAN_MOTION": 15.44134726, "ECCENTRICITY": 0.00015636, "INCLINATION": 43, "RA_OF_ASC_NODE": 53.3294, "ARG_OF_PERICENTER": 287.9037, "MEAN_ANOMALY": 194.5252, "EPHEMERIS_TYPE": 0, "CLASSIFICATION_TYPE": "U", "NORAD_CAT_ID": 66557, "ELEMENT_SET_NO": 999, "REV_AT_EPOCH": 603, "BSTAR": -0.048500144, "MEAN_MOTION_DOT": -0.02024188, "MEAN_MOTION_DDOT": 0}, "tle": {"line1": "1 66557U 25268A   25358.33336806 -.02024188  00000+0 -48500-1 0  9991", "line2": "2 66557  43.0000  53.3294 0001563 287.9037 194.5252 15.44134726  6039"}}, "geometry": {"type": "Point", "coordinates": [-164.8445396631364, 28.44209105099484]}}, {"type": "Feature", "properties": {"norad_id": 66558, "name": "STARLINK-35695", "group": "last-30-days", "lat": 21.846795939613017, "lon": -154.814705474588, "alt_km": 434.8688352544641, "timestamp": "2025-12-24T18:55:54.773898+00:00", "meta": {"OBJECT_NAME": "STARLINK-35695", "OBJECT_ID": "2025-268B", "EPOCH": "2025-12-24T08:00:03.000384", "MEAN_MOTION": 15.44997437, "ECCENTRICITY": 0.00013981, "INCLINATION": 43.0003, "RA_OF_ASC_NODE": 53.3059, "ARG_OF_PERICENTER": 285.7926, "MEAN_ANOMALY": 206.4706, "EPHEMERIS_TYPE": 0, "CLASSIFICATION_TYPE": "U", "NORAD_CAT_ID": 66558, "ELEMENT_SET_NO": 999, "REV_AT_EPOCH": 603, "BSTAR": -0.047881567, "MEAN_MOTION_DOT": -0.02054685, "MEAN_MOTION_DDOT": 0}, "tle": {"line1": "1 66558U 25268B   25358.33336806 -.02054685  00000+0 -47882-1 0  9999", "line2": "2 66558  43.0003  53.3059 0001398 285.7926 206.4706 15.44997437  6034"}}, "geometry": {"type": "Point", "coordinates": [-154.814705474588, 21.846795939613017]}}, {"type": "Feature", "properties": {"norad_id": 66559, "name": "STARLINK-35419", "group": "last-30-days", "lat": -9.257806432707017, "lon": -119.37112621845358, "alt_km": 423.2539886848417, "timestamp": "2025-12-24T18:55:54.773910+00:00", "meta": {"OBJECT_NAME": "STARLINK-35419", "OBJECT_ID": "2025-268C", "EPOCH": "2025-12-24T08:00:03.000384", "MEAN_MOTION": 15.50131709, "ECCENTRICITY": 9.682e-05, "INCLINATION": 43.0001, "RA_OF_ASC_NODE": 53.2135, "ARG_OF_PERICENTER": 280.3946, "MEAN_ANOMALY": 250.1612, "EPHEMERIS_TYPE": 0, "CLASSIFICATION_TYPE": "U", "NORAD_CAT_ID": 66559, "ELEMENT_SET_NO": 999, "REV_AT_EPOCH": 610, "BSTAR": -0.040449324, "MEAN_MOTION_DOT": -0.02076304, "MEAN_MOTION_DDOT": 0}, "tle": {"line1": "1 66559U 25268C   25358.33336806 -.02076304  00000+0 -40449-1 0  9994", "line2": "2 66559  43.0001  53.2135 0000968 280.3946 250.1612 15.50131709  6101"}}, "geometry": {"type": "Point", "coordinates": [-119.37112621845358, -9.257806432707017]}}, {"type": "Feature", "properties": {"norad_id": 66560, "name": "STARLINK-35411", "group": "last-30-days", "lat": -12.820504155392044, "lon": -115.32287879665357, "alt_km": 422.00959200610123, "timestamp": "2025-12-24T18:55:54.773946+00:00", "meta": {"OBJECT_NAME": "STARLINK-35411", "OBJECT_ID": "2025-268D", "EPOCH": "2025-12-24T08:00:03.000384", "MEAN_MOTION": 15.50662195, "ECCENTRICITY": 9.936e-05, "INCLINATION": 43.0004, "RA_OF_ASC_NODE": 53.2027, "ARG_OF_PERICENTER": 281.371, "MEAN_ANOMALY": 253.6594, "EPHEMERIS_TYPE": 0, "CLASSIFICATION_TYPE": "U", "NORAD_CAT_ID": 66560, "ELEMENT_SET_NO": 999, "REV_AT_EPOCH": 610, "BSTAR": -0.039677133, "MEAN_MOTION_DOT": -0.02075898, "MEAN_MOTION_DDOT": 0}, "tle": {"line1": "1 66560U 25268D   25358.33336806 -.02075898  00000+0 -39677-1 0  9994", "line2": "2 66560  43.0004  53.2027 0000993 281.3710 253.6594 15.50662195  6109"}}, "geometry": {"type": "Point", "coordinates": [-115.32287879665357, -12.820504155392044]}}, {"type": "Feature", "properties": {"norad_id": 66561, "name": "STARLINK-35305", "group": "last-30-days", "lat": -21.28561434604723, "lon": -104.77713914639406, "alt_km": 417.60534768025263, "timestamp": "2025-12-24T18:55:54.773959+00:00", "meta": {"OBJECT_NAME": "STARLINK-35305", "OBJECT_ID": "2025-268E", "EPOCH": "2025-12-24T08:00:03.000384", "MEAN_MOTION": 15.52333402, "ECCENTRICITY": 0.00010149, "INCLINATION": 43.0003, "RA_OF_ASC_NODE": 53.1767, "ARG_OF_PERICENTER": 278.4073, "MEAN_ANOMALY": 267.0586, "EPHEMERIS_TYPE": 0, "CLASSIFICATION_TYPE": "U", "NORAD_CAT_ID": 66561, "ELEMENT_SET_NO": 999, "REV_AT_EPOCH": 609, "BSTAR": -0.037333564, "MEAN_MOTION_DOT": -0.020752, "MEAN_MOTION_DDOT": 0}, "tle": {"line1": "1 66561U 25268E   25358.33336806 -.02075200  00000+0 -37334-1 0  9990", "line2": "2 66561  43.0003  53.1767 0001014 278.4073 267.0586 15.52333402  6099"}}, "geometry": {"type": "Point", "coordinates": [-104.77713914639406, -21.28561434604723]}}, {"type": "Feature", "properties": {"norad_id": 66562, "name": "STARLINK-35579", "group": "last-30-days", "lat": -17.301546217580327, "lon": -109.9468181467322, "alt_km": 419.82659441584565, "timestamp": "2025-12-24T18:55:54.773970+00:00", "meta": {"OBJECT_NAME": "STARLINK-35579", "OBJECT_ID": "2025-268F", "EPOCH": "2025-12-24T08:00:03.000384", "MEAN_MOTION": 15.51501579, "ECCENTRICITY": 0.00010185, "INCLINATION": 42.9997, "RA_OF_ASC_NODE": 53.1886, "ARG_OF_PERICENTER": 279.5471, "MEAN_ANOMALY": 260.9783, "EPHEMERIS_TYPE": 0, "CLASSIFICATION_TYPE": "U", "NORAD_CAT_ID": 66562, "ELEMENT_SET_NO": 999, "REV_AT_EPOCH": 610, "BSTAR": -0.03856977, "MEAN_MOTION_DOT": -0.02079582, "MEAN_MOTION_DDOT": 0}, "tle": {"line1": "1 66562U 25268F   25358.33336806 -.02079582  00000+0 -38570-1 0  9991", "line2": "2 66562  42.9997  53.1886 0001018 279.5471 260.9783 15.51501579  6104"}}, "geometry": {"type": "Point", "coordinates": [-109.9468181467322, -17.301546217580327]}}, {"type": "Feature", "properties": {"norad_id": 66563, "name": "STARLINK-35437", "group": "last-30-days", "lat": -24.770569432000972, "lon": -99.82385102276224, "alt_km": 415.36070675867177, "timestamp": "2025-12-24T18:55:54.773981+00:00", "meta": {"OBJECT_NAME": "STARLINK-35437", "OBJECT_ID": "2025-268G", "EPOCH": "2025-12-24T08:00:03.000384", "MEAN_MOTION": 15.53184757, "ECCENTRICITY": 8.857e-05, "INCLINATION": 43.0005, "RA_OF_ASC_NODE": 53.1653, "ARG_OF_PERICENTER": 272.3816, "MEAN_ANOMALY": 277.4516, "EPHEMERIS_TYPE": 0, "CLASSIFICATION_TYPE": "U", "NORAD_CAT_ID": 66563, "ELEMENT_SET_NO": 999, "REV_AT_EPOCH": 610, "BSTAR": -0.03657422, "MEAN_MOTION_DOT": -0.02094712, "MEAN_MOTION_DDOT": 0}, "tle": {"line1": "1 66563U 25268G   25358.33336806 -.02094712  00000+0 -36574-1 0  9996", "line2": "2 66563  43.0005  53.1653 0000885 272.3816 277.4516 15.53184757  6108"}}, "geometry": {"type": "Point", "coordinates": [-99.82385102276224, -24.770569432000972]}}]}